ONEWEB-0395             
1 50475U 21132G   26199.44870800 -.00000363  00000+0 -10601-2 0  9991
2 50475  87.8887  14.8411 0001971  85.1991 274.9362 13.11418998219818
ONEWEB-0396             
1 50476U 21132H   26199.80774874 -.00000029  00000+0 -10565-3 0  9995
2 50476  87.9201 329.1684 0001716  96.6012 263.5316 13.18686508225802
ONEWEB-0397             
1 50477U 21132J   26199.82291881 -.00000060  00000+0 -18570-3 0  9999
2 50477  87.9205 329.1650 0001655 102.1745 257.9573 13.18686763225780
ONEWEB-0398             
1 50478U 21132K   26199.49280584  .00000202  00000+0  53358-3 0  9990
2 50478  87.8893  14.8255 0002156  89.1509 270.9866 13.11415436219717
ONEWEB-0399             
1 50479U 21132L   26199.78443670  .00000528  00000+0  14550-2 0  9991
2 50479  87.8895  14.7788 0001471  80.3248 279.8046 13.11417246219744
ONEWEB-0400             
1 50480U 21132M   26199.80100023  .00000061  00000+0  12186-3 0  9994
2 50480  87.9200 329.1597 0002034  97.0383 263.0981 13.18685009225773
ONEWEB-0401             
1 50481U 21132N   26199.77065520  .00000015  00000+0  46039-5 0  9998
2 50481  87.9203 329.1630 0001803 105.2788 254.8544 13.18686328225777
ONEWEB-0402             
1 50482U 21132P   26199.80942462 -.00000260  00000+0 -69180-3 0  9996
2 50482  87.9202 329.1439 0001637 113.5243 246.6062 13.18685895225803
ONEWEB-0403             
1 50483U 21132Q   26199.83472742  .00000031  00000+0  45855-4 0  9997
2 50483  87.9202 329.1636 0001811  95.4854 264.6484 13.18686953225762
ONEWEB-0404             
1 50484U 21132R   26199.46058802  .00000145  00000+0  37299-3 0  9992
2 50484  87.8891  14.8400 0001762  80.8582 279.2746 13.11418396219790
ONEWEB-0405             
1 50485U 21132S   26199.77234176  .00000038  00000+0  63639-4 0  9996
2 50485  87.9203 329.1612 0002359  95.0557 265.0844 13.18684524226154
ONEWEB-0406             
1 50486U 21132T   26199.30864428  .00000057  00000+0  11197-3 0  9997
2 50486  87.9197 329.2678 0001672  82.2760 277.8562 13.18687106225720
ONEWEB-0407             
1 50487U 21132U   26199.75715010  .00000019  00000+0  15387-4 0  9993
2 50487  87.9202 329.1722 0002031 103.9481 256.1877 13.18684238225720
ONEWEB-0409             
1 50488U 21132V   26199.76408094 -.00000054  00000+0 -18681-3 0  9996
2 50488  87.8894  14.7691 0001863  82.1710 277.9629 13.11418659219728
ONEWEB-0412             
1 50489U 21132W   26199.82123419 -.00000030  00000+0 -10903-3 0  9992
2 50489  87.9201 329.1670 0001723 107.6520 252.4800 13.18686705225822
ONEWEB-0413             
1 50490U 21132X   26199.82628698 -.00000077  00000+0 -22774-3 0  9993
2 50490  87.9192 329.1621 0001884 109.1243 251.0093 13.18687369225765
ONEWEB-0414             
1 50491U 21132Y   26199.81111536 -.00000026  00000+0 -98966-4 0  9992
2 50491  87.9202 329.1503 0001712 100.8706 259.2618 13.18686816225791
ONEWEB-0417             
1 50492U 21132Z   26199.81954436 -.00000235  00000+0 -62906-3 0  9993
2 50492  87.9194 329.1654 0001805  92.8002 267.3337 13.18685701225779
ONEWEB-0418             
1 50493U 21132AA  26199.82952613  .00000008  00000+0 -12326-4 0  9999
2 50493  87.9198 329.1647 0001846  91.1245 269.0099 13.18686393225831
ONEWEB-0419             
1 50494U 21132AB  26199.77273037  .00000016  00000+0  86450-5 0  9998
2 50494  87.9202 329.1770 0002086  93.4932 266.6439 13.18665603225742
ONEWEB-0420             
1 50495U 21132AC  26199.81279551 -.00000028  00000+0 -10315-3 0  9991
2 50495  87.9194 329.1691 0002034 103.2092 256.9267 13.18684236225749
ONEWEB-0421             
1 50496U 21132AD  26199.80607147 -.00000041  00000+0 -13696-3 0  9997
2 50496  87.9193 329.1688 0001553 104.1677 255.9627 13.18685819225780
ONEWEB-0424             
1 50497U 21132AE  26199.76728108  .00000013  00000+0  38511-6 0  9997
2 50497  87.9200 329.1763 0002175  92.4930 267.6451 13.18686173225808
ONEWEB-0426             
1 50498U 21132AF  26199.80181554  .00003033  00000+0  76556-2 0  9993
2 50498  87.9209 329.1594 0001304  82.9446 277.1834 13.18711250225759
ONEWEB-0427             
1 50499U 21132AG  26199.76559558  .00000056  00000+0  10836-3 0  9994
2 50499  87.9201 329.1570 0001792  93.1088 267.0249 13.18686828225775
ONEWEB-0429             
1 50500U 21132AH  26199.82796951 -.00000156  00000+0 -42916-3 0  9991
2 50500  87.9194 329.1666 0001977 102.8081 257.3272 13.18685776225758
ONEWEB-0430             
1 50501U 21132AJ  26199.81616269 -.00000290  00000+0 -76846-3 0  9992
2 50501  87.9193 329.1674 0002115 102.9777 257.1591 13.18685852225796
ONEWEB-0432             
1 50502U 21132AK  26199.79918383  .00000018  00000+0  13768-4 0  9993
2 50502  87.9201 329.1575 0002349  96.3941 263.7458 13.18686427225744
ONEWEB-0440             
1 50503U 21132AL  26199.76052932 -.00000162  00000+0 -44414-3 0  9993
2 50503  87.9203 329.1767 0001768 108.9314 251.2009 13.18685663225732
ONEWEB-0450             
1 50504U 21132AM  26199.82980104  .00000013  00000+0  10789-5 0  9995
2 50504  87.9192 329.1653 0002045 102.9386 257.1974 13.18686844225778
