OBJECT_NAME,OBJECT_ID,EPOCH,MEAN_MOTION,ECCENTRICITY,INCLINATION,RA_OF_ASC_NODE,ARG_OF_PERICENTER,MEAN_ANOMALY,EPHEMERIS_TYPE,CLASSIFICATION_TYPE,NORAD_CAT_ID,ELEMENT_SET_NO,REV_AT_EPOCH,BSTAR,MEAN_MOTION_DOT,MEAN_MOTION_DDOT
ONEWEB-0395,2021-132G,2026-07-18T10:46:08.371200,13.11418998,.0001971,87.8887,14.8411,85.1991,274.9362,0,U,50475,999,21981,-.10600693E-2,-.363E-5,0
ONEWEB-0396,2021-132H,2026-07-18T19:23:09.491136,13.18686508,.0001716,87.9201,329.1684,96.6012,263.5316,0,U,50476,999,22580,-.10565E-3,-.29E-6,0
ONEWEB-0397,2021-132J,2026-07-18T19:45:00.185184,13.18686763,.0001655,87.9205,329.1650,102.1745,257.9573,0,U,50477,999,22578,-.1857E-3,-.6E-6,0
ONEWEB-0398,2021-132K,2026-07-18T11:49:38.424576,13.11415436,.0002156,87.8893,14.8255,89.1509,270.9866,0,U,50478,999,21971,.533584E-3,.202E-5,0
ONEWEB-0399,2021-132L,2026-07-18T18:49:35.330880,13.11417246,.0001471,87.8895,14.7788,80.3248,279.8046,0,U,50479,999,21974,.1455E-2,.528E-5,0
ONEWEB-0400,2021-132M,2026-07-18T19:13:26.419872,13.18685009,.0002034,87.9200,329.1597,97.0383,263.0981,0,U,50480,999,22577,.12186E-3,.61E-6,0
ONEWEB-0401,2021-132N,2026-07-18T18:29:44.609280,13.18686328,.0001803,87.9203,329.1630,105.2788,254.8544,0,U,50481,999,22577,.46039E-5,.15E-6,0
ONEWEB-0402,2021-132P,2026-07-18T19:25:34.287168,13.18685895,.0001637,87.9202,329.1439,113.5243,246.6062,0,U,50482,999,22580,-.6918E-3,-.26E-5,0
ONEWEB-0403,2021-132Q,2026-07-18T20:02:00.449088,13.18686953,.0001811,87.9202,329.1636,95.4854,264.6484,0,U,50483,999,22576,.45855E-4,.31E-6,0
ONEWEB-0404,2021-132R,2026-07-18T11:03:14.804928,13.11418396,.00017625,87.8891,14.8400,80.8582,279.2746,0,U,50484,999,21979,.37299335E-3,.145E-5,0
ONEWEB-0405,2021-132S,2026-07-18T18:32:10.328064,13.18684524,.0002359,87.9203,329.1612,95.0557,265.0844,0,U,50485,999,22615,.63639E-4,.38E-6,0
ONEWEB-0406,2021-132T,2026-07-18T07:24:26.865792,13.18687106,.00016726,87.9197,329.2678,82.2760,277.8562,0,U,50486,999,22572,.11196758E-3,.57E-6,0
ONEWEB-0407,2021-132U,2026-07-18T18:10:17.768640,13.18684238,.0002031,87.9202,329.1722,103.9481,256.1877,0,U,50487,999,22572,.15387E-4,.19E-6,0
ONEWEB-0409,2021-132V,2026-07-18T18:20:16.593216,13.11418659,.0001863,87.8894,14.7691,82.1710,277.9629,0,U,50488,999,21972,-.18681E-3,-.54E-6,0
ONEWEB-0412,2021-132W,2026-07-18T19:42:34.634016,13.18686705,.0001723,87.9201,329.1670,107.6520,252.4800,0,U,50489,999,22582,-.10903E-3,-.3E-6,0
ONEWEB-0413,2021-132X,2026-07-18T19:49:51.195072,13.18687369,.0001884,87.9192,329.1621,109.1243,251.0093,0,U,50490,999,22576,-.22774E-3,-.77E-6,0
ONEWEB-0414,2021-132Y,2026-07-18T19:28:00.367104,13.18686816,.0001712,87.9202,329.1503,100.8706,259.2618,0,U,50491,999,22579,-.98966E-4,-.26E-6,0
ONEWEB-0417,2021-132Z,2026-07-18T19:40:08.632704,13.18685701,.0001805,87.9194,329.1654,92.8002,267.3337,0,U,50492,999,22577,-.62906E-3,-.235E-5,0
ONEWEB-0418,2021-132AA,2026-07-18T19:54:31.057632,13.18686393,.0001846,87.9198,329.1647,91.1245,269.0099,0,U,50493,999,22583,-.12326E-4,.8E-7,0
ONEWEB-0419,2021-132AB,2026-07-18T18:32:43.903968,13.18665603,.0002086,87.9202,329.1770,93.4932,266.6439,0,U,50494,999,22574,.8645E-5,.16E-6,0
ONEWEB-0420,2021-132AC,2026-07-18T19:30:25.532064,13.18684236,.0002034,87.9194,329.1691,103.2092,256.9267,0,U,50495,999,22574,-.10315E-3,-.28E-6,0
ONEWEB-0421,2021-132AD,2026-07-18T19:20:44.575008,13.18685819,.0001553,87.9193,329.1688,104.1677,255.9627,0,U,50496,999,22578,-.13696E-3,-.41E-6,0
ONEWEB-0424,2021-132AE,2026-07-18T18:24:53.085312,13.18686173,.0002175,87.9200,329.1763,92.4930,267.6451,0,U,50497,999,22580,.38511E-6,.13E-6,0
ONEWEB-0426,2021-132AF,2026-07-18T19:14:36.862656,13.18711250,.0001304,87.9209,329.1594,82.9446,277.1834,0,U,50498,999,22575,.76556E-2,.3033E-4,0
ONEWEB-0427,2021-132AG,2026-07-18T18:22:27.458112,13.18686828,.0001792,87.9201,329.1570,93.1088,267.0249,0,U,50499,999,22577,.10836E-3,.56E-6,0
ONEWEB-0429,2021-132AH,2026-07-18T19:52:16.565664,13.18685776,.0001977,87.9194,329.1666,102.8081,257.3272,0,U,50500,999,22575,-.42916E-3,-.156E-5,0
ONEWEB-0430,2021-132AJ,2026-07-18T19:35:16.456416,13.18685852,.0002115,87.9193,329.1674,102.9777,257.1591,0,U,50501,999,22579,-.76846E-3,-.29E-5,0
ONEWEB-0432,2021-132AK,2026-07-18T19:10:49.482912,13.18686427,.0002349,87.9201,329.1575,96.3941,263.7458,0,U,50502,999,22574,.13768E-4,.18E-6,0
ONEWEB-0440,2021-132AL,2026-07-18T18:15:09.733248,13.18685663,.0001768,87.9203,329.1767,108.9314,251.2009,0,U,50503,999,22573,-.44414E-3,-.162E-5,0
ONEWEB-0450,2021-132AM,2026-07-18T19:54:54.809856,13.18686844,.0002045,87.9192,329.1653,102.9386,257.1974,0,U,50504,999,22577,.10789E-5,.13E-6,0
